{
    "links": {
        "self": "http://www.neowsapp.com/rest/v1/neo/3770350?api_key=iIulBulltgU6a56xZRHN4H3l9WmuAYTsLGpBGhQ2"
    },
    "id": "3770350",
    "neo_reference_id": "3770350",
    "name": "(2017 EW)",
    "designation": "2017 EW",
    "nasa_jpl_url": "http://ssd.jpl.nasa.gov/sbdb.cgi?sstr=3770350",
    "absolute_magnitude_h": 27.0,
    "estimated_diameter": {
        "kilometers": {
            "estimated_diameter_min": 0.0105816886,
            "estimated_diameter_max": 0.023661375
        },
        "meters": {
            "estimated_diameter_min": 10.5816885933,
            "estimated_diameter_max": 23.6613750114
        },
        "miles": {
            "estimated_diameter_min": 0.0065751544,
            "estimated_diameter_max": 0.0147024923
        },
        "feet": {
            "estimated_diameter_min": 34.7168272045,
            "estimated_diameter_max": 77.6291855923
        }
    },
    "is_potentially_hazardous_asteroid": false,
    "close_approach_data": [
        {
            "close_approach_date": "2017-03-07",
            "close_approach_date_full": "2017-Mar-07 13:58",
            "epoch_date_close_approach": 1488895080000,
            "relative_velocity": {
                "kilometers_per_second": "11.6956405456",
                "kilometers_per_hour": "42104.3059640275",
                "miles_per_hour": "26161.9783363703"
            },
            "miss_distance": {
                "astronomical": "0.0115255304",
                "lunar": "4.4834313256",
                "kilometers": "1724194.798460248",
                "miles": "1071364.9679095024"
            },
            "orbiting_body": "Earth"
        }
    ],
    "orbital_data": {
        "orbit_id": "4",
        "orbit_determination_date": "2017-04-06 08:19:42",
        "first_observation_date": "2017-03-04",
        "last_observation_date": "2017-03-05",
        "data_arc_in_days": 1,
        "observations_used": 17,
        "orbit_uncertainty": "8",
        "minimum_orbit_intersection": ".00383386",
        "jupiter_tisserand_invariant": "3.655",
        "epoch_osculation": "2457817.5",
        "eccentricity": ".5434877714862243",
        "semi_major_axis": "1.983886740139792",
        "inclination": "5.254579227582871",
        "ascending_node_longitude": "346.1388267880122",
        "orbital_period": "1020.642712315737",
        "perihelion_distance": ".9056685568601464",
        "perihelion_argument": "223.9137977852389",
        "aphelion_distance": "3.062104923419438",
        "perihelion_time": "2457852.074444209411",
        "mean_anomaly": "347.8049392160481",
        "mean_motion": ".3527189247089176",
        "equinox": "J2000",
        "orbit_class": {
            "orbit_class_type": "APO",
            "orbit_class_description": "Near-Earth asteroid orbits which cross the Earth’s orbit similar to that of 1862 Apollo",
            "orbit_class_range": "a (semi-major axis) > 1.0 AU; q (perihelion) < 1.017 AU"
        }
    },
    "is_sentry_object": false
}